OBJECT_NAME,OBJECT_ID,EPOCH,MEAN_MOTION,ECCENTRICITY,INCLINATION,RA_OF_ASC_NODE,ARG_OF_PERICENTER,MEAN_ANOMALY,EPHEMERIS_TYPE,CLASSIFICATION_TYPE,NORAD_CAT_ID,ELEMENT_SET_NO,REV_AT_EPOCH,BSTAR,MEAN_MOTION_DOT,MEAN_MOTION_DDOT
SAUDISAT 1C (SO-50),2002-058C,2026-07-10T01:57:58.749408,14.83092603,.00746788,64.5517,58.1476,258.2262,101.0460,0,U,27607,999,26785,.75179496E-4,.486E-5,0
SAUDISAT 2,2004-025F,2026-07-09T11:45:59.678784,14.56696323,.00237709,98.5516,191.0492,226.2459,133.6771,0,U,28371,999,16899,.45778518E-4,.155E-5,0
SAUDISAT 3,2007-012B,2026-07-09T06:59:30.035040,14.71438293,.0015207,98.1465,140.7077,152.5056,207.6958,0,U,31118,999,3099,.35846406E-4,.171E-5,0
PISAT,2016-059B,2026-07-09T11:39:21.062880,14.69023153,.00301683,97.8187,189.9810,132.2855,228.0916,0,U,41784,999,52301,.11401738E-3,.626E-5,0
FLYING LAPTOP,2017-042G,2026-07-10T07:32:59.917632,15.01291877,.00198656,97.4787,345.9737,47.9662,312.3249,0,U,42831,999,48992,.17529969E-3,.2206E-4,0
SALSAT,2020-068K,2026-07-09T06:02:33.013536,15.30117525,.00085936,97.8858,194.6644,215.0810,144.9864,0,U,46495,999,31873,.19084228E-3,.5482E-4,0
